start=new Date('2022-02-13T00:00:00.000Z').valueOf();
sats=[{"COUNTRY_CODE":"US","OBJECT_TYPE":"PAYLOAD","MEAN_ELEMENT_THEORY":"SGP4","RA_OF_ASC_NODE":"153.0322","NORAD_CAT_ID":"51130","DECAY_DATE":null,"RCS_SIZE":"LARGE","GP_ID":"195822883","MEAN_MOTION_DOT":"-0.00010112","MEAN_MOTION_DDOT":"0.0000000000000","BSTAR":"-0.00006792300000","OBJECT_ID":"2022-005AC","MEAN_MOTION":"15.73123185","PERIOD":"91.538","ELEMENT_SET_NO":"999","REV_AT_EPOCH":"373","SITE":"AFETR","INCLINATION":"53.2182","LAUNCH_DATE":"2022-01-19","REF_FRAME":"TEME","TLE_LINE2":"2 51130  53.2182 153.0322 0002321  20.5838 220.9143 15.73123185  3733","SEMIMAJOR_AXIS":"6728.114","CENTER_NAME":"EARTH","MEAN_ANOMALY":"220.9143","TIME_SYSTEM":"UTC","TLE_LINE1":"1 51130U 22005AC  22043.58334491 -.00010112  00000-0 -67923-4 0  9995","PERIAPSIS":"348.418","EPHEMERIS_TYPE":"0","EPOCH":"2022-02-12T14:00:01.000224","ECCENTRICITY":"0.00023210","ARG_OF_PERICENTER":"20.5838","OBJECT_NAME":"STARLINK-3395","APOAPSIS":"351.541","CLASSIFICATION_TYPE":"U","FILE":"3298493"},{"APOAPSIS":"351.536","ARG_OF_PERICENTER":"24.9973","OBJECT_NAME":"STARLINK-3388","CLASSIFICATION_TYPE":"U","FILE":"3298927","EPOCH":"2022-02-12T22:00:00.999936","TLE_LINE1":"1 51131U 22005AD  22043.91667824  .00023809  00000-0  17429-3 0  9992","EPHEMERIS_TYPE":"0","PERIAPSIS":"348.538","ECCENTRICITY":"0.00022280","LAUNCH_DATE":"2022-01-19","REF_FRAME":"TEME","CENTER_NAME":"EARTH","TLE_LINE2":"2 51131  53.2173 151.3769 0002228  24.9973 307.1821 15.73102914  5239","SEMIMAJOR_AXIS":"6728.172","MEAN_ANOMALY":"307.1821","TIME_SYSTEM":"UTC","PERIOD":"91.539","ELEMENT_SET_NO":"999","MEAN_MOTION":"15.73102914","REV_AT_EPOCH":"523","SITE":"AFETR","INCLINATION":"53.2173","OBJECT_ID":"2022-005AD","BSTAR":"0.00017429000000","MEAN_MOTION_DDOT":"0.0000000000000","DECAY_DATE":null,"NORAD_CAT_ID":"51131","RCS_SIZE":"LARGE","GP_ID":"195831310","MEAN_MOTION_DOT":"0.00023809","MEAN_ELEMENT_THEORY":"SGP4","COUNTRY_CODE":"US","OBJECT_TYPE":"PAYLOAD","RA_OF_ASC_NODE":"151.3769"},{"APOAPSIS":"351.168","ARG_OF_PERICENTER":"34.4724","OBJECT_NAME":"STARLINK-3393","FILE":"3298493","CLASSIFICATION_TYPE":"U","EPOCH":"2022-02-12T12:58:21.671904","TLE_LINE1":"1 51132U 22005AE  22043.54052861 -.00016701  00000-0 -11483-3 0  9990","PERIAPSIS":"348.397","EPHEMERIS_TYPE":"0","ECCENTRICITY":"0.00020590","REF_FRAME":"TEME","LAUNCH_DATE":"2022-01-19","MEAN_ANOMALY":"325.6429","TLE_LINE2":"2 51132  53.2183 153.2406 0002059  34.4724 325.6429 15.73192184  4058","SEMIMAJOR_AXIS":"6727.917","CENTER_NAME":"EARTH","TIME_SYSTEM":"UTC","PERIOD":"91.534","ELEMENT_SET_NO":"999","MEAN_MOTION":"15.73192184","REV_AT_EPOCH":"405","SITE":"AFETR","INCLINATION":"53.2183","BSTAR":"-0.00011483000000","OBJECT_ID":"2022-005AE","MEAN_MOTION_DDOT":"0.0000000000000","DECAY_DATE":null,"NORAD_CAT_ID":"51132","RCS_SIZE":"LARGE","GP_ID":"195823816","MEAN_MOTION_DOT":"-0.00016701","MEAN_ELEMENT_THEORY":"SGP4","COUNTRY_CODE":"US","OBJECT_TYPE":"PAYLOAD","RA_OF_ASC_NODE":"153.2406"},{"LAUNCH_DATE":"2022-01-19","REF_FRAME":"TEME","TLE_LINE2":"2 51133  53.2182 153.2342 0001909  35.4122 324.7025 15.73202726  4059","SEMIMAJOR_AXIS":"6727.887","MEAN_ANOMALY":"324.7025","CENTER_NAME":"EARTH","TIME_SYSTEM":"UTC","MEAN_MOTION":"15.73202726","PERIOD":"91.533","ELEMENT_SET_NO":"999","REV_AT_EPOCH":"405","INCLINATION":"53.2182","SITE":"AFETR","ARG_OF_PERICENTER":"35.4122","OBJECT_NAME":"STARLINK-3356","APOAPSIS":"351.037","CLASSIFICATION_TYPE":"U","FILE":"3298493","TLE_LINE1":"1 51133U 22005AF  22043.54008696 -.00025586  00000-0 -17840-3 0  9992","PERIAPSIS":"348.468","EPHEMERIS_TYPE":"0","EPOCH":"2022-02-12T12:57:43.513344","ECCENTRICITY":"0.00019090","NORAD_CAT_ID":"51133","DECAY_DATE":null,"RCS_SIZE":"LARGE","GP_ID":"195823989","MEAN_MOTION_DOT":"-0.00025586","COUNTRY_CODE":"US","OBJECT_TYPE":"PAYLOAD","MEAN_ELEMENT_THEORY":"SGP4","RA_OF_ASC_NODE":"153.2342","BSTAR":"-0.00017840000000","OBJECT_ID":"2022-005AF","MEAN_MOTION_DDOT":"0.0000000000000"},{"COUNTRY_CODE":"US","OBJECT_TYPE":"PAYLOAD","MEAN_ELEMENT_THEORY":"SGP4","RA_OF_ASC_NODE":"150.6611","NORAD_CAT_ID":"51134","DECAY_DATE":null,"RCS_SIZE":"LARGE","GP_ID":"195831439","MEAN_MOTION_DOT":"0.00090343","MEAN_MOTION_DDOT":"0.0000000000000","BSTAR":"0.00064586000000","OBJECT_ID":"2022-005AG","MEAN_MOTION":"15.73029027","PERIOD":"91.543","ELEMENT_SET_NO":"999","REV_AT_EPOCH":"524","INCLINATION":"53.2119","SITE":"AFETR","REF_FRAME":"TEME","LAUNCH_DATE":"2022-01-19","TLE_LINE2":"2 51134  53.2119 150.6611 0002395  19.2312 295.0058 15.73029027  5240","SEMIMAJOR_AXIS":"6728.383","CENTER_NAME":"EARTH","MEAN_ANOMALY":"295.0058","TIME_SYSTEM":"UTC","TLE_LINE1":"1 51134U 22005AG  22043.91667824  .00090343  00000-0  64586-3 0  9998","PERIAPSIS":"348.636","EPHEMERIS_TYPE":"0","EPOCH":"2022-02-12T22:00:00.999936","ECCENTRICITY":"0.00023950","ARG_OF_PERICENTER":"19.2312","OBJECT_NAME":"STARLINK-3183","APOAPSIS":"351.859","FILE":"3298931","CLASSIFICATION_TYPE":"U"},{"MEAN_MOTION":"15.73114999","ELEMENT_SET_NO":"999","PERIOD":"91.538","SITE":"AFETR","INCLINATION":"53.2168","REV_AT_EPOCH":"523","TLE_LINE2":"2 51135  53.2168 151.3713 0002580  32.6471 302.0286 15.73114999  5231","MEAN_ANOMALY":"302.0286","SEMIMAJOR_AXIS":"6728.138","CENTER_NAME":"EARTH","LAUNCH_DATE":"2022-01-19","REF_FRAME":"TEME","TIME_SYSTEM":"UTC","EPHEMERIS_TYPE":"0","PERIAPSIS":"348.267","TLE_LINE1":"1 51135U 22005AH  22043.91667824  .00019741  00000-0  14526-3 0  9991","EPOCH":"2022-02-12T22:00:00.999936","ECCENTRICITY":"0.00025800","ARG_OF_PERICENTER":"32.6471","OBJECT_NAME":"STARLINK-3363","APOAPSIS":"351.738","FILE":"3298931","CLASSIFICATION_TYPE":"U","OBJECT_TYPE":"PAYLOAD","COUNTRY_CODE":"US","MEAN_ELEMENT_THEORY":"SGP4","RA_OF_ASC_NODE":"151.3713","NORAD_CAT_ID":"51135","DECAY_DATE":null,"MEAN_MOTION_DOT":"0.00019741","RCS_SIZE":"LARGE","GP_ID":"195831440","MEAN_MOTION_DDOT":"0.0000000000000","BSTAR":"0.00014526000000","OBJECT_ID":"2022-005AH"},{"MEAN_MOTION_DDOT":"0.0000000000000","OBJECT_ID":"2022-005AJ","BSTAR":"-0.00121660000000","RA_OF_ASC_NODE":"151.2415","COUNTRY_CODE":"US","OBJECT_TYPE":"PAYLOAD","MEAN_ELEMENT_THEORY":"SGP4","GP_ID":"195831318","RCS_SIZE":"LARGE","MEAN_MOTION_DOT":"-0.00281505","NORAD_CAT_ID":"51136","DECAY_DATE":null,"ECCENTRICITY":"0.00015930","TLE_LINE1":"1 51136U 22005AJ  22043.57372980 -.00281505  00000-0 -12166-2 0  9998","EPHEMERIS_TYPE":"0","PERIAPSIS":"315.625","EPOCH":"2022-02-12T13:46:10.254720","FILE":"3298931","CLASSIFICATION_TYPE":"U","ARG_OF_PERICENTER":"42.5671","OBJECT_NAME":"STARLINK-3253","APOAPSIS":"317.758","REV_AT_EPOCH":"520","SITE":"AFETR","INCLINATION":"53.2206","MEAN_MOTION":"15.84870528","PERIOD":"90.859","ELEMENT_SET_NO":"999","TIME_SYSTEM":"UTC","LAUNCH_DATE":"2022-01-19","REF_FRAME":"TEME","SEMIMAJOR_AXIS":"6694.826","TLE_LINE2":"2 51136  53.2206 151.2415 0001593  42.5671 317.5477 15.84870528  5207","MEAN_ANOMALY":"317.5477","CENTER_NAME":"EARTH"},{"MEAN_MOTION_DDOT":"0.0000000000000","OBJECT_ID":"2022-005AK","BSTAR":"0.00049039000000","RA_OF_ASC_NODE":"151.3673","COUNTRY_CODE":"US","OBJECT_TYPE":"PAYLOAD","MEAN_ELEMENT_THEORY":"SGP4","RCS_SIZE":"LARGE","GP_ID":"195831334","MEAN_MOTION_DOT":"0.00068420","NORAD_CAT_ID":"51137","DECAY_DATE":null,"ECCENTRICITY":"0.00025180","TLE_LINE1":"1 51137U 22005AK  22043.91667824  .00068420  00000-0  49039-3 0  9998","PERIAPSIS":"348.405","EPHEMERIS_TYPE":"0","EPOCH":"2022-02-12T22:00:00.999936","FILE":"3298928","CLASSIFICATION_TYPE":"U","ARG_OF_PERICENTER":"26.6439","OBJECT_NAME":"STARLINK-3180","APOAPSIS":"351.793","REV_AT_EPOCH":"523","SITE":"AFETR","INCLINATION":"53.2177","MEAN_MOTION":"15.73081099","PERIOD":"91.540","ELEMENT_SET_NO":"999","TIME_SYSTEM":"UTC","LAUNCH_DATE":"2022-01-19","REF_FRAME":"TEME","TLE_LINE2":"2 51137  53.2177 151.3673 0002518  26.6439 310.5472 15.73081099  5231","SEMIMAJOR_AXIS":"6728.234","CENTER_NAME":"EARTH","MEAN_ANOMALY":"310.5472"},{"RA_OF_ASC_NODE":"151.3713","MEAN_ELEMENT_THEORY":"SGP4","OBJECT_TYPE":"PAYLOAD","COUNTRY_CODE":"US","MEAN_MOTION_DOT":"0.00020289","GP_ID":"195831323","RCS_SIZE":"LARGE","DECAY_DATE":null,"NORAD_CAT_ID":"51138","MEAN_MOTION_DDOT":"0.0000000000000","OBJECT_ID":"2022-005AL","BSTAR":"0.00014905000000","SITE":"AFETR","INCLINATION":"53.2176","REV_AT_EPOCH":"523","ELEMENT_SET_NO":"999","PERIOD":"91.537","MEAN_MOTION":"15.73131815","TIME_SYSTEM":"UTC","CENTER_NAME":"EARTH","TLE_LINE2":"2 51138  53.2176 151.3713 0002570  28.7193 306.5351 15.73131815  5237","SEMIMAJOR_AXIS":"6728.090","MEAN_ANOMALY":"306.5351","REF_FRAME":"TEME","LAUNCH_DATE":"2022-01-19","ECCENTRICITY":"0.00025700","EPOCH":"2022-02-12T22:00:00.999936","PERIAPSIS":"348.225","EPHEMERIS_TYPE":"0","TLE_LINE1":"1 51138U 22005AL  22043.91667824  .00020289  00000-0  14905-3 0  9994","CLASSIFICATION_TYPE":"U","FILE":"3298928","APOAPSIS":"351.684","ARG_OF_PERICENTER":"28.7193","OBJECT_NAME":"STARLINK-3177"},{"MEAN_MOTION_DDOT":"0.0000000000000","OBJECT_ID":"2022-005AM","BSTAR":"-0.00020552000000","MEAN_ELEMENT_THEORY":"SGP4","COUNTRY_CODE":"US","OBJECT_TYPE":"PAYLOAD","RA_OF_ASC_NODE":"153.0153","DECAY_DATE":null,"NORAD_CAT_ID":"51139","GP_ID":"195823057","RCS_SIZE":"LARGE","MEAN_MOTION_DOT":"-0.00029281","EPOCH":"2022-02-12T14:00:01.000224","TLE_LINE1":"1 51139U 22005AM  22043.58334491 -.00029281  00000-0 -20552-3 0  9997","PERIAPSIS":"348.338","EPHEMERIS_TYPE":"0","ECCENTRICITY":"0.00024150","APOAPSIS":"351.588","OBJECT_NAME":"STARLINK-3172","ARG_OF_PERICENTER":"23.5258","CLASSIFICATION_TYPE":"U","FILE":"3298493","PERIOD":"91.537","ELEMENT_SET_NO":"999","MEAN_MOTION":"15.73128925","REV_AT_EPOCH":"373","INCLINATION":"53.2184","SITE":"AFETR","LAUNCH_DATE":"2022-01-19","REF_FRAME":"TEME","SEMIMAJOR_AXIS":"6728.098","TLE_LINE2":"2 51139  53.2184 153.0153 0002415  23.5258 226.1145 15.73128925  3736","MEAN_ANOMALY":"226.1145","CENTER_NAME":"EARTH","TIME_SYSTEM":"UTC"}];
